ONEWEB-0665             
1 55825U 23029AF  25209.81002682 -.00000221  00000+0 -63154-3 0  9994
2 55825  87.9069 354.0749 0002079  92.7873 267.3495 13.14503052117618
ONEWEB-0666             
1 55826U 23029AG  25209.62789917  .00000076  00000+0  15530-3 0  9998
2 55826  87.9294 338.9487 0001152 105.7124 254.4136 13.20772155118444
ONEWEB-0667             
1 55827U 23029AH  25209.62159233  .00000091  00000+0  19207-3 0  9993
2 55827  87.9287 338.8794 0002118  98.1647 261.9727 13.20771667118430
ONEWEB-0669             
1 55828U 23029AJ  25209.38958301  .00000098  00000+0  20939-3 0  9991
2 55828  87.9292 338.9630 0001907 120.1108 240.0215 13.20771303118404
ONEWEB-0670             
1 55829U 23029AK  25209.63558506  .00000195  00000+0  49077-3 0  9995
2 55829  87.9073 354.1288 0002218 100.7957 259.3422 13.14504361116922
ONEWEB-0671             
1 55830U 23029AL  25209.47743205  .00000091  00000+0  19539-3 0  9996
2 55830  87.9229   9.3326 0002063  94.8456 265.2913 13.19726010116208
ONEWEB-0672             
1 55831U 23029AM  25209.61210448  .00000172  00000+0  39084-3 0  9998
2 55831  87.9293 338.9048 0001624 104.3657 255.7656 13.20773734118436
ONEWEB-0673             
1 55832U 23029AN  25209.45373848  .00000096  00000+0  20755-3 0  9995
2 55832  87.9235   9.3006 0001919  87.4679 272.6673 13.19725944116206
